NORAD_CAT_ID,OBJECT_NAME,OBJECT_TYPE,EPOCH,MEAN_MOTION,ECCENTRICITY,INCLINATION,RA_OF_ASC_NODE,ARG_OF_PERICENTER,MEAN_ANOMALY,BSTAR,MEAN_MOTION_DOT,MEAN_MOTION_DDOT,TLE_LINE0,TLE_LINE1,TLE_LINE2,SEMIMAJOR_AXIS,PERIOD,APOGEE,PERIGEE,DECAYED
51962.0,STARLINK-3697,PAYLOAD,2022-05-29 06:00:02,15.240925699999998,0.0001853,53.2176,106.6837,38.6332,259.9427,-0.031552,-0.00723939,0.0,0 STARLINK-3697,1 51962U 22025G   22149.25002315 -.00723939  00000-0 -31552-1 0  9992,2 51962  53.2176 106.6837 0001853  38.6332 259.9427 15.24092570 13908,6871.649,94.482,494.787,492.24,0.0
51962.0,STARLINK-3697,PAYLOAD,2022-05-29 14:00:01,15.23584328,0.0001616,53.2174,105.1509,43.3539,284.7707,-0.032205,-0.0072748,0.0,0 STARLINK-3697,1 51962U 22025G   22149.58334491 -.00727480  00000-0 -32205-1 0  9992,2 51962  53.2174 105.1509 0001616  43.3539 284.7707 15.23584328  1309,6873.177,94.514,496.152,493.931,0.0
51962.0,STARLINK-3697,PAYLOAD,2022-05-29 22:00:00,15.23072849,0.0001723,53.2177,103.6204,38.1664,318.9576,-0.03252,-0.00723745,0.0,0 STARLINK-3697,1 51962U 22025G   22149.91667824 -.00723745  00000-0 -32520-1 0  9998,2 51962  53.2177 103.6204 0001723  38.1664 318.9576 15.23072849  1301,6874.715,94.546,497.765,495.396,0.0
51962.0,STARLINK-3697,PAYLOAD,2022-05-30 06:00:00,15.22563029,0.0001675999999999,53.2176,102.093,40.2595,345.2499,-0.03308,-0.00725025,0.0,0 STARLINK-3697,1 51962U 22025G   22150.25001157 -.00725025  00000-0 -33080-1 0  9993,2 51962  53.2176 102.0930 0001676  40.2595 345.2499 15.22563029 14050,6876.25,94.577,499.267,496.962,0.0
51962.0,STARLINK-3697,PAYLOAD,2022-05-30 12:11:33,15.23230153,0.0002384,53.213,100.9164,28.2527,331.8601,-0.013643,-0.00313921,0.0,0 STARLINK-3697,1 51962U 22025G   22150.50802439 -.00313921  00000-0 -13643-1 0  9994,2 51962  53.2130 100.9164 0002384  28.2527 331.8601 15.23230153 14094,6874.2419999999975,94.536,497.746,494.468,0.0
51962.0,STARLINK-3697,PAYLOAD,2022-05-30 13:46:38,15.23340084,0.0001981,53.2129,100.6179,69.9673,290.1538,-0.0098811,-0.00230748,0.0,0 STARLINK-3697,1 51962U 22025G   22150.57406088 -.00230748  00000-0 -98811-2 0  9997,2 51962  53.2129 100.6179 0001981  69.9673 290.1538 15.23340084 12999,6873.911,94.529,497.138,494.415,0.0
51962.0,STARLINK-3697,PAYLOAD,2022-05-30 22:00:00,15.21542489,0.0001833,53.2176,99.0368,36.1127,44.3319,-0.034018,-0.00723507,0.0,0 STARLINK-3697,1 51962U 22025G   22150.91667824 -.00723507  00000-0 -34018-1 0  9990,2 51962  53.2176  99.0368 0001833  36.1127  44.3319 15.21542489 14155,6879.324000000001,94.641,502.45,499.92800000000005,0.0
51962.0,STARLINK-3697,PAYLOAD,2022-05-31 06:00:02,15.21031474,0.0001849,53.2176,97.5129,38.0566,68.9988,-0.034482,-0.0072248,0.0,0 STARLINK-3697,1 51962U 22025G   22151.25002315 -.00722480  00000-0 -34482-1 0  9990,2 51962  53.2176  97.5129 0001849  38.0566  68.9988 15.21031474  1302,6880.865,94.673,504.002,501.458,0.0
51962.0,STARLINK-3697,PAYLOAD,2022-05-31 13:25:38,15.21903793,0.0002253,53.213,96.1083,41.8604,318.2566,-0.010032,-0.00224705,0.0,0 STARLINK-3697,1 51962U 22025G   22151.55947031 -.00224705  00000-0 -10032-1 0  9998,2 51962  53.2130  96.1083 0002253  41.8604 318.2566 15.21903793 14254,6878.236,94.618,501.65,498.551,0.0
51962.0,STARLINK-3697,PAYLOAD,2022-05-31 22:00:00,15.20011987,0.000194,53.2177,94.464,39.1195,119.1305,-0.035532,-0.00722532,0.0,0 STARLINK-3697,1 51962U 22025G   22151.91667824 -.00722532  00000-0 -35532-1 0  9990,2 51962  53.2177  94.4640 0001940  39.1195 119.1305 15.20011987 14312,6883.941,94.736,507.142,504.471,0.0
51962.0,STARLINK-3697,PAYLOAD,2022-06-01 20:00:01,15.18609978,0.0001912,53.2176,90.2811,38.3714,96.3549,-0.037019,-0.00722606,0.0,0 STARLINK-3697,1 51962U 22025G   22152.83334491 -.00722606  00000-0 -37019-1 0  9997,2 51962  53.2176  90.2811 0001912  38.3714  96.3549 15.18609978 14453,6888.178000000001,94.824,511.36,508.726,0.0
51962.0,STARLINK-3697,PAYLOAD,2022-06-03 03:01:51,15.17842103,0.000265,53.213,84.40899999999998,24.7753,335.337,-0.0096749,-0.00193366,0.0,0 STARLINK-3697,1 51962U 22025G   22154.12629439 -.00193366  00000-0 -96749-2 0  9991,2 51962  53.2130  84.4090 0002650  24.7753 335.3370 15.17842103 14646,6890.501,94.872,514.192,510.54,0.0
51962.0,STARLINK-3697,PAYLOAD,2022-06-03 12:31:19,15.17361086,0.0003233,53.2146,82.6157,37.6292,322.4929,-0.011228,-0.00220476,0.0,0 STARLINK-3697,1 51962U 22025G   22154.52175912 -.00220476  00000-0 -11228-1 0  9998,2 51962  53.2146  82.6157 0003233  37.6292 322.4929 15.17361086 14706,6891.956999999999,94.902,516.05,511.594,0.0
51962.0,STARLINK-3697,PAYLOAD,2022-06-04 04:21:05,15.16206993,0.0003067,53.214,79.6222,44.7928,315.3314,-0.010793,-0.00205475,0.0,0 STARLINK-3697,1 51962U 22025G   22155.18130916 -.00205475  00000-0 -10793-1 0  9994,2 51962  53.2140  79.6222 0003067  44.7928 315.3314 15.16206993 14803,6895.454000000002,94.974,519.433,515.2040000000002,0.0
51962.0,STARLINK-3697,PAYLOAD,2022-06-04 12:16:03,15.15863219,0.0002097,53.2146,78.1273,39.2431,320.8716,-0.011933,-0.00224327,0.0,0 STARLINK-3697,1 51962U 22025G   22155.51114663 -.00224327  00000-0 -11933-1 0  9996,2 51962  53.2146  78.1273 0002097  39.2431 320.8716 15.15863219 14850,6896.496,94.995,519.807,516.915,0.0
51962.0,STARLINK-3697,PAYLOAD,2022-06-05 22:00:00,15.12362849,0.0002119,53.2174,71.7607,31.1195,73.4294,-0.044301,-0.0072348999999999,0.0,0 STARLINK-3697,1 51962U 22025G   22156.91667824 -.00723490  00000-0 -44301-1 0  9993,2 51962  53.2174  71.7607 0002119  31.1195  73.4294 15.12362849 15071,6907.1330000000025,95.215,530.462,527.535,0.0
51962.0,STARLINK-3697,PAYLOAD,2022-06-06 14:00:01,15.11341217,0.0001946,53.2174,68.7528,36.1845,98.7879,-0.045378,-0.00720402,0.0,0 STARLINK-3697,1 51962U 22025G   22157.58334491 -.00720402  00000-0 -45378-1 0  9993,2 51962  53.2174  68.7528 0001946  36.1845  98.7879 15.11341217  1308,6910.246,95.28,533.455,530.766,0.0
51962.0,STARLINK-3697,PAYLOAD,2022-06-06 22:00:00,15.10831897,0.000222,53.2174,67.2519,31.9389,117.3249,-0.046116,-0.00721739,0.0,0 STARLINK-3697,1 51962U 22025G   22157.91667824 -.00721739  00000-0 -46116-1 0  9994,2 51962  53.2174  67.2519 0002220  31.9389 117.3249 15.10831897  1300,6911.799,95.312,535.198,532.129,0.0
51962.0,STARLINK-3697,PAYLOAD,2022-06-07 06:00:00,15.10320832,0.0001791,53.2171,65.7521,44.7323,118.2105,-0.046598,-0.0071914,0.0,0 STARLINK-3697,1 51962U 22025G   22158.25001157 -.00719140  00000-0 -46598-1 0  9990,2 51962  53.2171  65.7521 0001791  44.7323 118.2105 15.10320832 15279,6913.358,95.344,536.461,533.985,0.0
51962.0,STARLINK-3697,PAYLOAD,2022-06-07 14:00:01,15.09811616,0.0001843,53.2173,64.2511,42.5493,133.4608,-0.047381,-0.0072086,0.0,0 STARLINK-3697,1 51962U 22025G   22158.58334491 -.00720860  00000-0 -47381-1 0  9998,2 51962  53.2173  64.2511 0001843  42.5493 133.4608 15.09811616  1305,6914.9119999999975,95.376,538.052,535.503,0.0
51962.0,STARLINK-3697,PAYLOAD,2022-06-07 22:00:00,15.09218994,0.0002018,53.2174,62.7539,36.6187,151.8605,-0.032928,-0.00499543,0.0,0 STARLINK-3697,1 51962U 22025G   22158.91667824 -.00499543  00000-0 -32928-1 0  9996,2 51962  53.2174  62.7539 0002018  36.6187 151.8605 15.09218994  1309,6916.722,95.414,539.9830000000002,537.191,0.0
51962.0,STARLINK-3697,PAYLOAD,2022-06-08 06:00:02,15.08836585,0.0001689,53.2171,61.2575,49.1675,151.2036,5.450100000000001e-05,5.79e-06,0.0,0 STARLINK-3697,1 51962U 22025G   22159.25002315  .00000579  00000-0  54501-4 0  9991,2 51962  53.2171  61.2575 0001689  49.1675 151.2036 15.08836585 15425,6917.891,95.438,540.924,538.587,0.0
51962.0,STARLINK-3697,PAYLOAD,2022-06-08 14:00:01,15.08925477,0.0001778,53.2149,59.76300000000001,43.1674,168.8181,-0.014372,-0.00222557,0.0,0 STARLINK-3697,1 51962U 22025G   22159.58334491 -.00222557  00000-0 -14372-1 0  9993,2 51962  53.2149  59.7630 0001778  43.1674 168.8181 15.08925477 15475,6917.619000000002,95.432,540.714,538.254,0.0
51962.0,STARLINK-3697,PAYLOAD,2022-06-08 22:00:01,15.08881133,0.000183,53.2134,58.2707,42.5637,181.121,-0.0013306,-0.00021426,0.0,0 STARLINK-3697,1 51962U 22025G   22159.91668981 -.00021426  00000-0 -13306-2 0  9993,2 51962  53.2134  58.2707 0001830  42.5637 181.1210 15.08881133 15526,6917.755,95.435,540.886,538.354,0.0
51962.0,STARLINK-3697,PAYLOAD,2022-06-09 14:00:01,15.088077300000002,0.0001740999999999,53.2132,55.2763,45.7559,201.1154,-0.00054878,-9.004e-05,0.0,0 STARLINK-3697,1 51962U 22025G   22160.58334491 -.00009004  00000-0 -54878-3 0  9992,2 51962  53.2132  55.2763 0001741  45.7559 201.1154 15.08807730  1304,6917.979,95.44,541.048,538.64,0.0
51962.0,STARLINK-3697,PAYLOAD,2022-06-09 22:00:00,15.0880339,0.0001889,53.2134,53.7814,45.4697,212.9511,0.0012521,0.00019675,0.0,0 STARLINK-3697,1 51962U 22025G   22160.91667824  .00019675  00000-0  12521-2 0  9999,2 51962  53.2134  53.7814 0001889  45.4697 212.9511 15.08803390  1304,6917.9919999999975,95.44,541.164,538.55,0.0
51962.0,STARLINK-3697,PAYLOAD,2022-06-10 00:00:00,15.08810271,0.0001944,53.2134,53.4077,44.2516,307.0559,0.00092745,0.00014491,0.0,0 STARLINK-3697,1 51962U 22025G   22161.00001157  .00014491  00000-0  92745-3 0  9999,2 51962  53.2134  53.4077 0001944  44.2516 307.0559 15.08810271 15681,6917.971,95.439,541.181,538.491,0.0
51962.0,STARLINK-3697,PAYLOAD,2022-06-10 14:00:01,15.08810765,0.0001748,53.2131,50.7868,48.9687,232.6014,0.0031979,0.00050934,0.0,0 STARLINK-3697,1 51962U 22025G   22161.58334491  .00050934  00000-0  31979-2 0  9995,2 51962  53.2131  50.7868 0001748  48.9687 232.6014 15.08810765  1309,6917.97,95.439,541.044,538.625,0.0
51962.0,STARLINK-3697,PAYLOAD,2022-06-10 22:00:00,15.08849707,0.0001888,53.2132,49.2919,46.8788,246.2756,-0.00083759,-0.00013597,0.0,0 STARLINK-3697,1 51962U 22025G   22161.91667824 -.00013597  00000-0 -83759-3 0  9991,2 51962  53.2132  49.2919 0001888  46.8788 246.2756 15.08849707  1306,6917.851,95.437,541.0219999999998,538.41,0.0
